start=new Date('2023-07-04T00:00:00.000Z').valueOf();
sats=[{"DECAY_DATE":null,"OBJECT_NAME":"STARLINK-4715","MEAN_ELEMENT_THEORY":"SGP4","NORAD_CAT_ID":"53801","INCLINATION":"53.2180","EPHEMERIS_TYPE":"0","TLE_LINE2":"2 53801  53.2180 345.6711 0001031  88.4673 271.6437 15.08842250 44986","OBJECT_ID":"2022-111AE","CLASSIFICATION_TYPE":"U","BSTAR":"0.00004933000000","RA_OF_ASC_NODE":"345.6711","APOAPSIS":"540.452","MEAN_MOTION_DDOT":"0.0000000000000","MEAN_ANOMALY":"271.6437","ELEMENT_SET_NO":"999","SEMIMAJOR_AXIS":"6917.874","MEAN_MOTION":"15.08842250","OBJECT_TYPE":"PAYLOAD","COUNTRY_CODE":"US","EPOCH":"2023-07-03T04:04:29.423136","MEAN_MOTION_DOT":"0.00000497","CENTER_NAME":"EARTH","LAUNCH_DATE":"2022-09-11","PERIAPSIS":"539.025","REV_AT_EPOCH":"4498","TLE_LINE1":"1 53801U 22111AE  23184.16978499  .00000497  00000-0  49330-4 0  9998","RCS_SIZE":"LARGE","FILE":"3948519","ECCENTRICITY":"0.00010310","SITE":"AFETR","PERIOD":"95.437","ARG_OF_PERICENTER":"88.4673","TIME_SYSTEM":"UTC","REF_FRAME":"TEME","GP_ID":"234694035"},{"TLE_LINE1":"1 53802U 22111AF  23184.43843219  .00000561  00000-0  53317-4 0  9992","RCS_SIZE":"LARGE","REV_AT_EPOCH":"4502","FILE":"3948519","PERIOD":"95.437","TIME_SYSTEM":"UTC","ARG_OF_PERICENTER":"84.4598","SITE":"AFETR","ECCENTRICITY":"0.00011070","GP_ID":"234693905","REF_FRAME":"TEME","MEAN_ANOMALY":"275.6521","MEAN_MOTION_DDOT":"0.0000000000000","MEAN_MOTION":"15.08842219","SEMIMAJOR_AXIS":"6917.874","ELEMENT_SET_NO":"999","COUNTRY_CODE":"US","OBJECT_TYPE":"PAYLOAD","LAUNCH_DATE":"2022-09-11","PERIAPSIS":"538.973","CENTER_NAME":"EARTH","MEAN_MOTION_DOT":"0.00000561","EPOCH":"2023-07-03T10:31:20.541216","OBJECT_ID":"2022-111AF","CLASSIFICATION_TYPE":"U","TLE_LINE2":"2 53802  53.2180 344.5041 0001107  84.4598 275.6521 15.08842219 45026","EPHEMERIS_TYPE":"0","BSTAR":"0.00005331700000","APOAPSIS":"540.504","RA_OF_ASC_NODE":"344.5041","OBJECT_NAME":"STARLINK-4726","DECAY_DATE":null,"INCLINATION":"53.2180","MEAN_ELEMENT_THEORY":"SGP4","NORAD_CAT_ID":"53802"},{"EPHEMERIS_TYPE":"0","TLE_LINE2":"2 53803  53.2186 330.8120 0001097  93.0661 267.0456 15.08838959 45190","CLASSIFICATION_TYPE":"U","OBJECT_ID":"2022-111AG","BSTAR":"0.00007755300000","RA_OF_ASC_NODE":"330.8120","APOAPSIS":"540.507","DECAY_DATE":null,"OBJECT_NAME":"STARLINK-4727","MEAN_ELEMENT_THEORY":"SGP4","NORAD_CAT_ID":"53803","INCLINATION":"53.2186","REV_AT_EPOCH":"4519","TLE_LINE1":"1 53803U 22111AG  23184.18775382  .00000947  00000-0  77553-4 0  9996","RCS_SIZE":"LARGE","FILE":"3948519","ECCENTRICITY":"0.00010970","SITE":"AFETR","TIME_SYSTEM":"UTC","PERIOD":"95.438","ARG_OF_PERICENTER":"93.0661","REF_FRAME":"TEME","GP_ID":"234693895","MEAN_MOTION_DDOT":"0.0000000000000","MEAN_ANOMALY":"267.0456","ELEMENT_SET_NO":"999","SEMIMAJOR_AXIS":"6917.884","MEAN_MOTION":"15.08838959","OBJECT_TYPE":"PAYLOAD","COUNTRY_CODE":"US","EPOCH":"2023-07-03T04:30:21.930048","MEAN_MOTION_DOT":"0.00000947","CENTER_NAME":"EARTH","PERIAPSIS":"538.990","LAUNCH_DATE":"2022-09-11"},{"OBJECT_NAME":"STARLINK-4729","DECAY_DATE":null,"INCLINATION":"53.2183","NORAD_CAT_ID":"53804","MEAN_ELEMENT_THEORY":"SGP4","CLASSIFICATION_TYPE":"U","OBJECT_ID":"2022-111AH","EPHEMERIS_TYPE":"0","TLE_LINE2":"2 53804  53.2183 342.4305 0000982  87.5073 272.6031 15.08841121 44992","APOAPSIS":"540.421","RA_OF_ASC_NODE":"342.4305","BSTAR":"0.00001978200000","MEAN_MOTION":"15.08841121","SEMIMAJOR_AXIS":"6917.877","ELEMENT_SET_NO":"999","MEAN_ANOMALY":"272.6031","MEAN_MOTION_DDOT":"0.0000000000000","CENTER_NAME":"EARTH","MEAN_MOTION_DOT":"0.00000027","PERIAPSIS":"539.063","LAUNCH_DATE":"2022-09-11","EPOCH":"2023-07-02T18:26:15.666432","COUNTRY_CODE":"US","OBJECT_TYPE":"PAYLOAD","FILE":"3948226","REV_AT_EPOCH":"4499","TLE_LINE1":"1 53804U 22111AH  23183.76823688  .00000027  00000-0  19782-4 0  9992","RCS_SIZE":"LARGE","GP_ID":"234686472","REF_FRAME":"TEME","SITE":"AFETR","TIME_SYSTEM":"UTC","PERIOD":"95.437","ARG_OF_PERICENTER":"87.5073","ECCENTRICITY":"0.00009820"},{"FILE":"3948882","TLE_LINE1":"1 53805U 22111AJ  23184.72135310  .00001734  00000-0  12695-3 0  9999","REV_AT_EPOCH":"4527","RCS_SIZE":"LARGE","GP_ID":"234700273","REF_FRAME":"TEME","TIME_SYSTEM":"UTC","PERIOD":"95.437","ARG_OF_PERICENTER":"90.3378","SITE":"AFETR","ECCENTRICITY":"0.00009820","MEAN_MOTION":"15.08846440","SEMIMAJOR_AXIS":"6917.861","ELEMENT_SET_NO":"999","MEAN_ANOMALY":"269.7727","MEAN_MOTION_DDOT":"0.0000000000000","PERIAPSIS":"539.046","LAUNCH_DATE":"2022-09-11","CENTER_NAME":"EARTH","MEAN_MOTION_DOT":"0.00001734","EPOCH":"2023-07-03T17:18:44.907840","COUNTRY_CODE":"US","OBJECT_TYPE":"PAYLOAD","OBJECT_ID":"2022-111AJ","CLASSIFICATION_TYPE":"U","TLE_LINE2":"2 53805  53.2186 328.4528 0000982  90.3378 269.7727 15.08846440 45277","EPHEMERIS_TYPE":"0","APOAPSIS":"540.405","RA_OF_ASC_NODE":"328.4528","BSTAR":"0.00012695000000","OBJECT_NAME":"STARLINK-4763","DECAY_DATE":null,"INCLINATION":"53.2186","MEAN_ELEMENT_THEORY":"SGP4","NORAD_CAT_ID":"53805"},{"BSTAR":"0.00005055300000","APOAPSIS":"540.319","RA_OF_ASC_NODE":"329.5045","CLASSIFICATION_TYPE":"U","OBJECT_ID":"2022-111AK","TLE_LINE2":"2 53806  53.2161 329.5045 0000833  82.4774 277.6313 15.08840715 45238","EPHEMERIS_TYPE":"0","INCLINATION":"53.2161","NORAD_CAT_ID":"53806","MEAN_ELEMENT_THEORY":"SGP4","OBJECT_NAME":"STARLINK-4768","DECAY_DATE":null,"ARG_OF_PERICENTER":"82.4774","PERIOD":"95.438","TIME_SYSTEM":"UTC","SITE":"AFETR","ECCENTRICITY":"0.00008330","GP_ID":"234694033","REF_FRAME":"TEME","TLE_LINE1":"1 53806U 22111AK  23184.43428662  .00000517  00000-0  50553-4 0  9997","REV_AT_EPOCH":"4523","RCS_SIZE":"LARGE","FILE":"3948519","COUNTRY_CODE":"US","OBJECT_TYPE":"PAYLOAD","PERIAPSIS":"539.167","LAUNCH_DATE":"2022-09-11","MEAN_MOTION_DOT":"0.00000517","CENTER_NAME":"EARTH","EPOCH":"2023-07-03T10:25:22.363968","MEAN_ANOMALY":"277.6313","MEAN_MOTION_DDOT":"0.0000000000000","MEAN_MOTION":"15.08840715","ELEMENT_SET_NO":"999","SEMIMAJOR_AXIS":"6917.878"},{"DECAY_DATE":null,"OBJECT_NAME":"STARLINK-4749","MEAN_ELEMENT_THEORY":"SGP4","NORAD_CAT_ID":"53818","INCLINATION":"53.2161","TLE_LINE2":"2 53818  53.2161  20.3406 0003889  86.6038 273.5403 15.19226382 44358","EPHEMERIS_TYPE":"0","CLASSIFICATION_TYPE":"U","OBJECT_ID":"2022-114A","RA_OF_ASC_NODE":"20.3406","APOAPSIS":"510.857","BSTAR":"0.00124720000000","SEMIMAJOR_AXIS":"6886.314","ELEMENT_SET_NO":"999","MEAN_MOTION":"15.19226382","MEAN_MOTION_DDOT":"0.0000000000000","MEAN_ANOMALY":"273.5403","EPOCH":"2023-07-03T06:15:51.009984","PERIAPSIS":"505.501","LAUNCH_DATE":"2022-09-19","CENTER_NAME":"EARTH","MEAN_MOTION_DOT":"0.00026373","OBJECT_TYPE":"PAYLOAD","COUNTRY_CODE":"US","FILE":"3948522","TLE_LINE1":"1 53818U 22114A   23184.26100706  .00026373  00000-0  12472-2 0  9994","REV_AT_EPOCH":"4435","RCS_SIZE":"LARGE","REF_FRAME":"TEME","GP_ID":"234693953","ECCENTRICITY":"0.00038890","PERIOD":"94.785","TIME_SYSTEM":"UTC","ARG_OF_PERICENTER":"86.6038","SITE":"AFETR"},{"EPOCH":"2023-07-03T16:49:00.951744","PERIAPSIS":"538.874","LAUNCH_DATE":"2022-09-19","MEAN_MOTION_DOT":"0.00000406","CENTER_NAME":"EARTH","OBJECT_TYPE":"PAYLOAD","COUNTRY_CODE":"US","ELEMENT_SET_NO":"999","SEMIMAJOR_AXIS":"6917.883","MEAN_MOTION":"15.08839138","MEAN_MOTION_DDOT":"0.0000000000000","MEAN_ANOMALY":"272.0030","REF_FRAME":"TEME","GP_ID":"234700289","ECCENTRICITY":"0.00012630","PERIOD":"95.438","ARG_OF_PERICENTER":"88.1107","TIME_SYSTEM":"UTC","SITE":"AFETR","FILE":"3948867","REV_AT_EPOCH":"4434","TLE_LINE1":"1 53819U 22114B   23184.70070546  .00000406  00000-0  43609-4 0  9999","RCS_SIZE":"LARGE","MEAN_ELEMENT_THEORY":"SGP4","NORAD_CAT_ID":"53819","INCLINATION":"53.2171","DECAY_DATE":null,"OBJECT_NAME":"STARLINK-4738","RA_OF_ASC_NODE":"23.6503","APOAPSIS":"540.622","BSTAR":"0.00004360900000","TLE_LINE2":"2 53819  53.2171  23.6503 0001263  88.1107 272.0030 15.08839138 44348","EPHEMERIS_TYPE":"0","CLASSIFICATION_TYPE":"U","OBJECT_ID":"2022-114B"},{"BSTAR":"0.00009102900000","APOAPSIS":"540.677","RA_OF_ASC_NODE":"23.6672","OBJECT_ID":"2022-114C","CLASSIFICATION_TYPE":"U","TLE_LINE2":"2 53820  53.2161  23.6672 0001354  98.6684 261.4462 15.08841600 44341","EPHEMERIS_TYPE":"0","INCLINATION":"53.2161","NORAD_CAT_ID":"53820","MEAN_ELEMENT_THEORY":"SGP4","OBJECT_NAME":"STARLINK-4758","DECAY_DATE":null,"ARG_OF_PERICENTER":"98.6684","PERIOD":"95.437","TIME_SYSTEM":"UTC","SITE":"AFETR","ECCENTRICITY":"0.00013540","GP_ID":"234700283","REF_FRAME":"TEME","RCS_SIZE":"LARGE","TLE_LINE1":"1 53820U 22114C   23184.70343249  .00001161  00000-0  91029-4 0  9992","REV_AT_EPOCH":"4434","FILE":"3948867","COUNTRY_CODE":"US","OBJECT_TYPE":"PAYLOAD","PERIAPSIS":"538.804","LAUNCH_DATE":"2022-09-19","MEAN_MOTION_DOT":"0.00001161","CENTER_NAME":"EARTH","EPOCH":"2023-07-03T16:52:56.567136","MEAN_ANOMALY":"261.4462","MEAN_MOTION_DDOT":"0.0000000000000","MEAN_MOTION":"15.08841600","SEMIMAJOR_AXIS":"6917.875","ELEMENT_SET_NO":"999"},{"NORAD_CAT_ID":"53821","MEAN_ELEMENT_THEORY":"SGP4","INCLINATION":"53.2178","DECAY_DATE":null,"OBJECT_NAME":"STARLINK-4752","BSTAR":"0.00001385700000","RA_OF_ASC_NODE":"332.3598","APOAPSIS":"540.463","TLE_LINE2":"2 53821  53.2178 332.3598 0001028  86.0589 274.0521 15.08837846 44983","EPHEMERIS_TYPE":"0","CLASSIFICATION_TYPE":"U","OBJECT_ID":"2022-114D","OBJECT_TYPE":"PAYLOAD","COUNTRY_CODE":"US","EPOCH":"2023-07-02T18:59:23.121312","LAUNCH_DATE":"2022-09-19","PERIAPSIS":"539.041","MEAN_MOTION_DOT":"-0.00000067","CENTER_NAME":"EARTH","MEAN_MOTION_DDOT":"0.0000000000000","MEAN_ANOMALY":"274.0521","ELEMENT_SET_NO":"999","SEMIMAJOR_AXIS":"6917.887","MEAN_MOTION":"15.08837846","ECCENTRICITY":"0.00010280","TIME_SYSTEM":"UTC","PERIOD":"95.438","ARG_OF_PERICENTER":"86.0589","SITE":"AFETR","REF_FRAME":"TEME","GP_ID":"234686271","TLE_LINE1":"1 53821U 22114D   23183.79123983 -.00000067  00000-0  13857-4 0  9990","REV_AT_EPOCH":"4498","RCS_SIZE":"LARGE","FILE":"3948223"}];
